{
    "links": {
        "self": "http://www.neowsapp.com/rest/v1/neo/3305003?api_key=iIulBulltgU6a56xZRHN4H3l9WmuAYTsLGpBGhQ2"
    },
    "id": "3305003",
    "neo_reference_id": "3305003",
    "name": "(2005 WZ55)",
    "designation": "2005 WZ55",
    "nasa_jpl_url": "http://ssd.jpl.nasa.gov/sbdb.cgi?sstr=3305003",
    "absolute_magnitude_h": 24.4,
    "estimated_diameter": {
        "kilometers": {
            "estimated_diameter_min": 0.0350392641,
            "estimated_diameter_max": 0.0783501764
        },
        "meters": {
            "estimated_diameter_min": 35.0392641108,
            "estimated_diameter_max": 78.3501764334
        },
        "miles": {
            "estimated_diameter_min": 0.0217723826,
            "estimated_diameter_max": 0.0486845275
        },
        "feet": {
            "estimated_diameter_min": 114.9582192654,
            "estimated_diameter_max": 257.0543928497
        }
    },
    "is_potentially_hazardous_asteroid": false,
    "close_approach_data": [
        {
            "close_approach_date": "2005-11-25",
            "close_approach_date_full": "2005-Nov-25 17:34",
            "epoch_date_close_approach": 1132940040000,
            "relative_velocity": {
                "kilometers_per_second": "6.5410770831",
                "kilometers_per_hour": "23547.8774993067",
                "miles_per_hour": "14631.7353272775"
            },
            "miss_distance": {
                "astronomical": "0.0675453198",
                "lunar": "26.2751294022",
                "kilometers": "10104635.970548826",
                "miles": "6278729.6435367588"
            },
            "orbiting_body": "Earth"
        }
    ],
    "orbital_data": {
        "orbit_id": "12",
        "orbit_determination_date": "2017-04-06 09:09:45",
        "first_observation_date": "2005-11-28",
        "last_observation_date": "2005-12-21",
        "data_arc_in_days": 23,
        "observations_used": 43,
        "orbit_uncertainty": "7",
        "minimum_orbit_intersection": ".0666934",
        "jupiter_tisserand_invariant": "4.072",
        "epoch_osculation": "2459000.5",
        "eccentricity": ".3906602873981807",
        "semi_major_axis": "1.720299195555146",
        "inclination": "8.502602414440872",
        "ascending_node_longitude": "249.482014421732",
        "orbital_period": "824.1464765734141",
        "perihelion_distance": "1.048246617408713",
        "perihelion_argument": "165.3939070564209",
        "aphelion_distance": "2.392351773701578",
        "perihelion_time": "2458637.458310277868",
        "mean_anomaly": "158.5822569349118",
        "mean_motion": ".4368155543135803",
        "equinox": "J2000",
        "orbit_class": {
            "orbit_class_type": "AMO",
            "orbit_class_description": "Near-Earth asteroid orbits similar to that of 1221 Amor",
            "orbit_class_range": "1.017 AU < q (perihelion) < 1.3 AU"
        }
    },
    "is_sentry_object": false
}